NORAD_CAT_ID,OBJECT_NAME,OBJECT_TYPE,EPOCH,MEAN_MOTION,ECCENTRICITY,INCLINATION,RA_OF_ASC_NODE,ARG_OF_PERICENTER,MEAN_ANOMALY,BSTAR,MEAN_MOTION_DOT,MEAN_MOTION_DDOT,TLE_LINE0,TLE_LINE1,TLE_LINE2,SEMIMAJOR_AXIS,PERIOD,APOGEE,PERIGEE,DECAYED
56818.0,STARLINK-6028,PAYLOAD,2023-09-12 14:00:01,15.53810526,0.0003541,69.9981,120.2827,261.8692,101.3621,-0.0148,-0.00870424,0.0,0 STARLINK-6028,1 56818U 23078BD  23255.58335648 -.00870424  00000-0 -14800-1 0  9998,2 56818  69.9981 120.2827 0003541 261.8692 101.3621 15.53810526  6029,6783.749,92.675,408.017,403.212,0.0
56818.0,STARLINK-6028,PAYLOAD,2023-09-12 22:00:00,15.53173079,0.0003469,69.998,119.3682,268.0324,158.7759,-0.015845,-0.0090688,0.0,0 STARLINK-6028,1 56818U 23078BD  23255.91667824 -.00906880  00000-0 -15845-1 0  9995,2 56818  69.9980 119.3682 0003469 268.0324 158.7759 15.53173079  6018,6785.605,92.713,409.824,405.117,0.0
56818.0,STARLINK-6028,PAYLOAD,2023-09-13 04:00:00,15.52695121,0.0003555,69.9975,118.6827,268.8625,115.156,-0.016373,-0.00919726,0.0,0 STARLINK-6028,1 56818U 23078BD  23256.16667824 -.00919726  00000-0 -16373-1 0  9993,2 56818  69.9975 118.6827 0003555 268.8625 115.1560 15.52695121 16769,6786.998,92.742,411.276,406.45,0.0
56818.0,STARLINK-6028,PAYLOAD,2023-09-13 14:00:01,15.51776714,0.0003381,69.9978,117.5415,261.2244,290.5256,-0.011998,-0.00661939,0.0,0 STARLINK-6028,1 56818U 23078BD  23256.58334491 -.00661939  00000-0 -11998-1 0  9998,2 56818  69.9978 117.5415 0003381 261.2244 290.5256 15.51776714  6052,6789.676,92.797,413.836,409.245,0.0
56818.0,STARLINK-6028,PAYLOAD,2023-09-13 20:00:01,15.51268017,0.0003439,69.9979,116.8574,264.9575,242.8332,-0.0014737,-0.00085933,0.0,0 STARLINK-6028,1 56818U 23078BD  23256.83334491 -.00085933  00000-0 -14737-2 0  9995,2 56818  69.9979 116.8574 0003439 264.9575 242.8332 15.51268017 16869,6791.16,92.827,415.36,410.689,0.0
56818.0,STARLINK-6028,PAYLOAD,2023-09-13 22:00:00,15.51210202,0.0003334,69.998,116.6295,266.9327,346.11,0.00023008,0.00013366,0.0,0 STARLINK-6028,1 56818U 23078BD  23256.91667824  .00013366  00000-0  23008-3 0  9994,2 56818  69.9980 116.6295 0003334 266.9327 346.1100 15.51210202  6010,6791.329,92.831,415.458,410.929,0.0
56818.0,STARLINK-6028,PAYLOAD,2023-09-14 04:00:00,15.51237417,0.0003282,69.9978,115.9456,267.847,300.8659,-0.00046387,-0.00027331,0.0,0 STARLINK-6028,1 56818U 23078BD  23257.16667824 -.00027331  00000-0 -46387-3 0  9996,2 56818  69.9978 115.9456 0003282 267.8470 300.8659 15.51237417 16912,6791.249,92.829,415.343,410.885,0.0
56818.0,STARLINK-6028,PAYLOAD,2023-09-14 14:00:01,15.51223549,0.0003288,69.9989,114.8066,262.2673,112.6502,0.00031612,0.00018446,0.0,0 STARLINK-6028,1 56818U 23078BD  23257.58335648  .00018446  00000-0  31612-3 0  9998,2 56818  69.9989 114.8066 0003288 262.2673 112.6502 15.51223549  5969,6791.29,92.83,415.388,410.922,0.0
56818.0,STARLINK-6028,PAYLOAD,2023-09-14 20:00:01,15.5123485,0.0003301,69.9986,114.123,267.3163,63.227,-0.00038226,-0.00022563,0.0,0 STARLINK-6028,1 56818U 23078BD  23257.83334491 -.00022563  00000-0 -38226-3 0  9996,2 56818  69.9986 114.1230 0003301 267.3163  63.2270 15.51234850 17028,6791.257,92.829,415.363,410.88,0.0
56818.0,STARLINK-6028,PAYLOAD,2023-09-14 22:00:00,15.51218893,0.0003272,69.9986,113.8952,269.4741,166.303,0.00016724,9.669e-05,0.0,0 STARLINK-6028,1 56818U 23078BD  23257.91667824  .00009669  00000-0  16724-3 0  9993,2 56818  69.9986 113.8952 0003272 269.4741 166.3030 15.51218893  6023,6791.303,92.83,415.39,410.946,0.0
56818.0,STARLINK-6028,PAYLOAD,2023-09-15 12:00:00,15.51181956,0.000336,69.9992,112.3002,265.2763,187.1062,0.0014406,0.00085243,0.0,0 STARLINK-6028,1 56818U 23078BD  23258.50001157  .00085243  00000-0  14406-2 0  9996,2 56818  69.9992 112.3002 0003360 265.2763 187.1062 15.51181956 17124,6791.411,92.832,415.558,410.994,0.0
56818.0,STARLINK-6028,PAYLOAD,2023-09-15 14:00:01,15.51217458,0.0003358,69.9994,112.0725,264.6023,292.992,0.00058621,0.0003441,0.0,0 STARLINK-6028,1 56818U 23078BD  23258.58334491  .00034410  00000-0  58621-3 0  9992,2 56818  69.9994 112.0725 0003358 264.6023 292.9920 15.51217458  5913,6791.307,92.83,415.453,410.892,0.0
56818.0,STARLINK-6028,PAYLOAD,2023-09-15 20:00:01,15.51229991,0.0003454,69.9993,111.3888,269.2001,244.0826,-0.00023402,-0.0001389,0.0,0 STARLINK-6028,1 56818U 23078BD  23258.83334491 -.00013890  00000-0 -23402-3 0  9990,2 56818  69.9993 111.3888 0003454 269.2001 244.0826 15.51229991 17177,6791.271,92.83,415.481,410.79,0.0
56818.0,STARLINK-6028,PAYLOAD,2023-09-16 14:00:01,15.51232567,0.0003448,69.9991,109.338,265.9021,114.438,-0.00014154,-8.473e-05,0.0,0 STARLINK-6028,1 56818U 23078BD  23259.58334491 -.00008473  00000-0 -14154-3 0  9998,2 56818  69.9991 109.3380 0003448 265.9021 114.4380 15.51232567  6027,6791.263,92.829,415.47,410.787,0.0
56818.0,STARLINK-6028,PAYLOAD,2023-09-16 23:11:55,15.51233349,0.0003558,69.9977,108.2897,269.641,90.4368,-8.6609e-06,-6.74e-06,0.0,0 STARLINK-6028,1 56818U 23078BD  23259.96661956 -.00000674  00000-0 -86609-5 0  9990,2 56818  69.9977 108.2897 0003558 269.6410  90.4368 15.51233349 17353,6791.261,92.829,415.542,410.71,0.0
56818.0,STARLINK-6028,PAYLOAD,2023-09-17 17:46:45,15.50900708,0.0004692,69.9978,106.1753,247.3582,112.7108,-0.00063121,-0.00036658,0.0,0 STARLINK-6028,1 56818U 23078BD  23260.74080485 -.00036658  00000-0 -63121-3 0  9993,2 56818  69.9978 106.1753 0004692 247.3582 112.7108 15.50900708 17477,6792.232,92.849,417.284,410.91,0.0
56818.0,STARLINK-6028,PAYLOAD,2023-09-17 23:59:05,15.50239162,0.0004006,69.9977,105.4724,256.783,103.2909,-0.0021052,-0.00117833,0.0,0 STARLINK-6028,1 56818U 23078BD  23260.99937359 -.00117833  00000-0 -21052-2 0  9992,2 56818  69.9977 105.4724 0004006 256.7830 103.2909 15.50239162 17513,6794.164,92.889,418.751,413.307,0.0
56818.0,STARLINK-6028,PAYLOAD,2023-09-18 12:00:00,15.48461482,0.000343,69.9991,104.1053,265.1335,8.5338,-0.017755,-0.00862842,0.0,0 STARLINK-6028,1 56818U 23078BD  23261.50001157 -.00862842  00000-0 -17755-1 0  9999,2 56818  69.9991 104.1053 0003430 265.1335   8.5338 15.48461482 17594,6799.363,92.996,423.56,418.896,0.0
56818.0,STARLINK-6028,PAYLOAD,2023-09-18 14:00:01,15.48331081,0.0003508,69.9993,103.8785,267.2067,110.829,-0.018904,-0.00922385,0.0,0 STARLINK-6028,1 56818U 23078BD  23261.58334491 -.00922385  00000-0 -18904-1 0  9993,2 56818  69.9993 103.8785 0003508 267.2067 110.8290 15.48331081  6059,6799.745,93.003,423.995,419.225,0.0
56818.0,STARLINK-6028,PAYLOAD,2023-09-18 20:00:01,15.47829719,0.0003514,69.9992,103.1981,270.7291,60.1684,-0.019202,-0.0092077,0.0,0 STARLINK-6028,1 56818U 23078BD  23261.83334491 -.00920770  00000-0 -19202-1 0  9999,2 56818  69.9992 103.1981 0003514 270.7291  60.1684 15.47829719 17644,6801.213,93.033,425.468,420.688,0.0
56818.0,STARLINK-6028,PAYLOAD,2023-09-18 22:00:00,15.47656759,0.0003428,69.9993,102.9714,274.2453,160.8395,-0.01888,-0.00901458,0.0,0 STARLINK-6028,1 56818U 23078BD  23261.91667824 -.00901458  00000-0 -18880-1 0  9990,2 56818  69.9993 102.9714 0003428 274.2453 160.8395 15.47656759  5915,6801.72,93.044,425.917,421.253,0.0
56818.0,STARLINK-6028,PAYLOAD,2023-09-19 20:00:01,15.45872047,0.0003388,69.9993,100.4817,272.3045,225.5866,-0.020523,-0.00919569,0.0,0 STARLINK-6028,1 56818U 23078BD  23262.83334491 -.00919569  00000-0 -20523-1 0  9992,2 56818  69.9993 100.4817 0003388 272.3045 225.5866 15.45872047 17792,6806.954,93.151,431.125,426.513,0.0
56818.0,STARLINK-6028,PAYLOAD,2023-09-20 14:00:01,15.44420074,0.0003549,69.9997,98.45,266.3347,82.1677,-0.0218,-0.00928633,0.0,0 STARLINK-6028,1 56818U 23078BD  23263.58334491 -.00928633  00000-0 -21800-1 0  9996,2 56818  69.9997  98.4500 0003549 266.3347  82.1677 15.44420074  6016,6811.22,93.239,435.502,430.667,0.0
56818.0,STARLINK-6028,PAYLOAD,2023-09-20 20:00:01,15.43909492,0.000336,69.9994,97.7738,270.3682,27.4768,-0.021655,-0.00908235,0.0,0 STARLINK-6028,1 56818U 23078BD  23263.83334491 -.00908235  00000-0 -21655-1 0  9998,2 56818  69.9994  97.7738 0003360 270.3682  27.4768 15.43909492 17959,6812.721,93.27,436.875,432.297,0.0
56818.0,STARLINK-6028,PAYLOAD,2023-09-20 22:00:00,15.43741229,0.0003393,69.9996,97.5484,273.6331,127.2243,-0.021468,-0.00896271,0.0,0 STARLINK-6028,1 56818U 23078BD  23263.91667824 -.00896271  00000-0 -21468-1 0  9994,2 56818  69.9996  97.5484 0003393 273.6331 127.2243 15.43741229  6025,6813.216,93.28,437.393,432.77,0.0
56818.0,STARLINK-6028,PAYLOAD,2023-09-21 12:00:00,15.42596377,0.0003462,69.9998,95.973,267.4301,133.1345,-0.021939,-0.00882336,0.0,0 STARLINK-6028,1 56818U 23078BD  23264.50001157 -.00882336  00000-0 -21939-1 0  9991,2 56818  69.9998  95.9730 0003462 267.4301 133.1345 15.42596377 18054,6816.587,93.349,440.812,436.092,0.0
56818.0,STARLINK-6028,PAYLOAD,2023-09-21 14:00:01,15.4246054,0.0003319,70.0001,95.7481,268.0591,235.1167,-0.023178,-0.00924244,0.0,0 STARLINK-6028,1 56818U 23078BD  23264.58334491 -.00924244  00000-0 -23178-1 0  9991,2 56818  70.0001  95.7481 0003319 268.0591 235.1167 15.42460540  5965,6816.987,93.357,441.115,436.589,0.0
56818.0,STARLINK-6028,PAYLOAD,2023-09-21 20:00:01,15.41953681,0.0003398,69.9998,95.074,273.5359,177.2214,-0.023229,-0.00911735,0.0,0 STARLINK-6028,1 56818U 23078BD  23264.83334491 -.00911735  00000-0 -23229-1 0  9997,2 56818  69.9998  95.0740 0003398 273.5359 177.2214 15.41953681 18109,6818.481,93.388,442.663,438.029,0.0
56818.0,STARLINK-6028,PAYLOAD,2023-09-21 22:00:01,15.41780139,0.0003317,69.9998,94.8492,273.3078,279.9406,-0.022748,-0.0088951,0.0,0 STARLINK-6028,1 56818U 23078BD  23264.91668981 -.00889510  00000-0 -22748-1 0  9990,2 56818  69.9998  94.8492 0003317 273.3078 279.9406 15.41780139  6024,6818.992,93.399,443.119,438.596,0.0
56818.0,STARLINK-6028,PAYLOAD,2023-09-22 14:00:01,15.40505189,0.0003388,70.0002,93.054,265.9605,24.8457,-0.024755,-0.0092467,0.0,0 STARLINK-6028,1 56818U 23078BD  23265.58334491 -.00924670  00000-0 -24755-1 0  9997,2 56818  70.0002  93.0540 0003388 265.9605  24.8457 15.40505189  5817,6822.754,93.476,446.931,442.308,0.0
